CCSDS_OMM_VERS = 2.0
CREATION_DATE  = 
ORIGINATOR     = 

OBJECT_NAME    = STARLINK-36189
OBJECT_ID      = 2025-293H
CENTER_NAME    = EARTH
REF_FRAME      = TEME
TIME_SYSTEM    = UTC
MEAN_ELEMENT_THEORY = SGP/SGP4

EPOCH          = 2026-01-04T06:00:02.000160
MEAN_MOTION    = 15.52556391
ECCENTRICITY   = .00030381
INCLINATION    = 69.9991
RA_OF_ASC_NODE = 259.8198
ARG_OF_PERICENTER = 268.6337
MEAN_ANOMALY   = 78.9857

EPHEMERIS_TYPE = 0
CLASSIFICATION_TYPE = U
NORAD_CAT_ID   = 67010
ELEMENT_SET_NO = 999
REV_AT_EPOCH   = 377
BSTAR          = -.15325143E-2
MEAN_MOTION_DOT = -.93472E-3
MEAN_MOTION_DDOT = 0

CCSDS_OMM_VERS = 2.0
CREATION_DATE  = 
ORIGINATOR     = 

OBJECT_NAME    = STARLINK-36167
OBJECT_ID      = 2025-293J
CENTER_NAME    = EARTH
REF_FRAME      = TEME
TIME_SYSTEM    = UTC
MEAN_ELEMENT_THEORY = SGP/SGP4

EPOCH          = 2026-01-04T06:00:02.000160
MEAN_MOTION    = 15.52550521
ECCENTRICITY   = .00029686
INCLINATION    = 69.9993
RA_OF_ASC_NODE = 259.8230
ARG_OF_PERICENTER = 272.8176
MEAN_ANOMALY   = 72.8786

EPHEMERIS_TYPE = 0
CLASSIFICATION_TYPE = U
NORAD_CAT_ID   = 67011
ELEMENT_SET_NO = 999
REV_AT_EPOCH   = 371
BSTAR          = -.11903227E-2
MEAN_MOTION_DOT = -.7281E-3
MEAN_MOTION_DDOT = 0

CCSDS_OMM_VERS = 2.0
CREATION_DATE  = 
ORIGINATOR     = 

OBJECT_NAME    = STARLINK-36175
OBJECT_ID      = 2025-293K
CENTER_NAME    = EARTH
REF_FRAME      = TEME
TIME_SYSTEM    = UTC
MEAN_ELEMENT_THEORY = SGP/SGP4

EPOCH          = 2026-01-04T06:00:02.000160
MEAN_MOTION    = 15.52548850
ECCENTRICITY   = .00032004
INCLINATION    = 69.9993
RA_OF_ASC_NODE = 259.8183
ARG_OF_PERICENTER = 271.8613
MEAN_ANOMALY   = 77.6691

EPHEMERIS_TYPE = 0
CLASSIFICATION_TYPE = U
NORAD_CAT_ID   = 67012
ELEMENT_SET_NO = 999
REV_AT_EPOCH   = 371
BSTAR          = -.11419732E-2
MEAN_MOTION_DOT = -.69883E-3
MEAN_MOTION_DDOT = 0

CCSDS_OMM_VERS = 2.0
CREATION_DATE  = 
ORIGINATOR     = 

OBJECT_NAME    = STARLINK-35856
OBJECT_ID      = 2025-293L
CENTER_NAME    = EARTH
REF_FRAME      = TEME
TIME_SYSTEM    = UTC
MEAN_ELEMENT_THEORY = SGP/SGP4

EPOCH          = 2026-01-04T06:00:02.000160
MEAN_MOTION    = 15.52556758
ECCENTRICITY   = .00032858
INCLINATION    = 69.9992
RA_OF_ASC_NODE = 259.8162
ARG_OF_PERICENTER = 270.9629
MEAN_ANOMALY   = 80.4821

EPHEMERIS_TYPE = 0
CLASSIFICATION_TYPE = U
NORAD_CAT_ID   = 67013
ELEMENT_SET_NO = 999
REV_AT_EPOCH   = 371
BSTAR          = -.13742538E-2
MEAN_MOTION_DOT = -.83941E-3
MEAN_MOTION_DDOT = 0

CCSDS_OMM_VERS = 2.0
CREATION_DATE  = 
ORIGINATOR     = 

OBJECT_NAME    = STARLINK-36207
OBJECT_ID      = 2025-293M
CENTER_NAME    = EARTH
REF_FRAME      = TEME
TIME_SYSTEM    = UTC
MEAN_ELEMENT_THEORY = SGP/SGP4

EPOCH          = 2026-01-04T02:56:12.505344
MEAN_MOTION    = 15.52551111
ECCENTRICITY   = .00032986
INCLINATION    = 69.9991
RA_OF_ASC_NODE = 260.1628
ARG_OF_PERICENTER = 275.5553
MEAN_ANOMALY   = 84.5258

EPHEMERIS_TYPE = 0
CLASSIFICATION_TYPE = U
NORAD_CAT_ID   = 67014
ELEMENT_SET_NO = 999
REV_AT_EPOCH   = 514
BSTAR          = .20186523E-2
MEAN_MOTION_DOT = .126157E-2
MEAN_MOTION_DDOT = 0

CCSDS_OMM_VERS = 2.0
CREATION_DATE  = 
ORIGINATOR     = 

OBJECT_NAME    = STARLINK-36093
OBJECT_ID      = 2025-293N
CENTER_NAME    = EARTH
REF_FRAME      = TEME
TIME_SYSTEM    = UTC
MEAN_ELEMENT_THEORY = SGP/SGP4

EPOCH          = 2026-01-04T02:55:13.141632
MEAN_MOTION    = 15.52551082
ECCENTRICITY   = .00032869
INCLINATION    = 69.9994
RA_OF_ASC_NODE = 260.1606
ARG_OF_PERICENTER = 266.1951
MEAN_ANOMALY   = 93.8860

EPHEMERIS_TYPE = 0
CLASSIFICATION_TYPE = U
NORAD_CAT_ID   = 67015
ELEMENT_SET_NO = 999
REV_AT_EPOCH   = 514
BSTAR          = .16624245E-2
MEAN_MOTION_DOT = .103568E-2
MEAN_MOTION_DDOT = 0

CCSDS_OMM_VERS = 2.0
CREATION_DATE  = 
ORIGINATOR     = 

OBJECT_NAME    = STARLINK-36120
OBJECT_ID      = 2025-293P
CENTER_NAME    = EARTH
REF_FRAME      = TEME
TIME_SYSTEM    = UTC
MEAN_ELEMENT_THEORY = SGP/SGP4

EPOCH          = 2026-01-04T02:55:42.737952
MEAN_MOTION    = 15.52558097
ECCENTRICITY   = .0003207
INCLINATION    = 69.9992
RA_OF_ASC_NODE = 260.1621
ARG_OF_PERICENTER = 263.3090
MEAN_ANOMALY   = 96.7732

EPHEMERIS_TYPE = 0
CLASSIFICATION_TYPE = U
NORAD_CAT_ID   = 67016
ELEMENT_SET_NO = 999
REV_AT_EPOCH   = 514
BSTAR          = .11971497E-2
MEAN_MOTION_DOT = .74277E-3
MEAN_MOTION_DDOT = 0

CCSDS_OMM_VERS = 2.0
CREATION_DATE  = 
ORIGINATOR     = 

OBJECT_NAME    = STARLINK-35498
OBJECT_ID      = 2025-293Q
CENTER_NAME    = EARTH
REF_FRAME      = TEME
TIME_SYSTEM    = UTC
MEAN_ELEMENT_THEORY = SGP/SGP4

EPOCH          = 2026-01-04T02:54:43.643808
MEAN_MOTION    = 15.52550932
ECCENTRICITY   = .00031908
INCLINATION    = 69.9991
RA_OF_ASC_NODE = 260.1589
ARG_OF_PERICENTER = 265.6617
MEAN_ANOMALY   = 94.4206

EPHEMERIS_TYPE = 0
CLASSIFICATION_TYPE = U
NORAD_CAT_ID   = 67017
ELEMENT_SET_NO = 999
REV_AT_EPOCH   = 514
BSTAR          = .20616015E-2
MEAN_MOTION_DOT = .128887E-2
MEAN_MOTION_DDOT = 0

CCSDS_OMM_VERS = 2.0
CREATION_DATE  = 
ORIGINATOR     = 

OBJECT_NAME    = STARLINK-36106
OBJECT_ID      = 2025-293R
CENTER_NAME    = EARTH
REF_FRAME      = TEME
TIME_SYSTEM    = UTC
MEAN_ELEMENT_THEORY = SGP/SGP4

EPOCH          = 2026-01-04T02:54:13.913568
MEAN_MOTION    = 15.52559138
ECCENTRICITY   = .00036169
INCLINATION    = 69.9992
RA_OF_ASC_NODE = 260.1575
ARG_OF_PERICENTER = 274.1085
MEAN_ANOMALY   = 85.9688

EPHEMERIS_TYPE = 0
CLASSIFICATION_TYPE = U
NORAD_CAT_ID   = 67018
ELEMENT_SET_NO = 999
REV_AT_EPOCH   = 514
BSTAR          = .19905854E-2
MEAN_MOTION_DOT = .124413E-2
MEAN_MOTION_DDOT = 0

CCSDS_OMM_VERS = 2.0
CREATION_DATE  = 
ORIGINATOR     = 

OBJECT_NAME    = STARLINK-35688
OBJECT_ID      = 2025-293S
CENTER_NAME    = EARTH
REF_FRAME      = TEME
TIME_SYSTEM    = UTC
MEAN_ELEMENT_THEORY = SGP/SGP4

EPOCH          = 2026-01-04T05:58:46.254144
MEAN_MOTION    = 15.55244557
ECCENTRICITY   = .00069648
INCLINATION    = 69.9990
RA_OF_ASC_NODE = 259.8016
ARG_OF_PERICENTER = 330.2243
MEAN_ANOMALY   = 29.8548

EPHEMERIS_TYPE = 0
CLASSIFICATION_TYPE = U
NORAD_CAT_ID   = 67019
ELEMENT_SET_NO = 999
REV_AT_EPOCH   = 516
BSTAR          = .32756936E-1
MEAN_MOTION_DOT = .2506705E-1
MEAN_MOTION_DDOT = 0

CCSDS_OMM_VERS = 2.0
CREATION_DATE  = 
ORIGINATOR     = 

OBJECT_NAME    = STARLINK-36172
OBJECT_ID      = 2025-293T
CENTER_NAME    = EARTH
REF_FRAME      = TEME
TIME_SYSTEM    = UTC
MEAN_ELEMENT_THEORY = SGP/SGP4

EPOCH          = 2026-01-04T01:21:11.911104
MEAN_MOTION    = 15.47807886
ECCENTRICITY   = .00185664
INCLINATION    = 69.9990
RA_OF_ASC_NODE = 260.3328
ARG_OF_PERICENTER = 165.6816
MEAN_ANOMALY   = 194.4899

EPHEMERIS_TYPE = 0
CLASSIFICATION_TYPE = U
NORAD_CAT_ID   = 67020
ELEMENT_SET_NO = 999
REV_AT_EPOCH   = 513
BSTAR          = -.93793073E-1
MEAN_MOTION_DOT = -.42557E-1
MEAN_MOTION_DDOT = 0

CCSDS_OMM_VERS = 2.0
CREATION_DATE  = 
ORIGINATOR     = 

OBJECT_NAME    = STARLINK-36184
OBJECT_ID      = 2025-293U
CENTER_NAME    = EARTH
REF_FRAME      = TEME
TIME_SYSTEM    = UTC
MEAN_ELEMENT_THEORY = SGP/SGP4

EPOCH          = 2026-01-04T05:57:44.075520
MEAN_MOTION    = 15.55248316
ECCENTRICITY   = .0008654
INCLINATION    = 69.9994
RA_OF_ASC_NODE = 259.7987
ARG_OF_PERICENTER = 272.6946
MEAN_ANOMALY   = 87.3252

EPHEMERIS_TYPE = 0
CLASSIFICATION_TYPE = U
NORAD_CAT_ID   = 67021
ELEMENT_SET_NO = 999
REV_AT_EPOCH   = 516
BSTAR          = .30372596E-1
MEAN_MOTION_DOT = .2353911E-1
MEAN_MOTION_DDOT = 0

