STARLINK-36189          
1 67010U 25293H   26004.25002315 -.00093472  00000+0 -15325-2 0  9999
2 67010  69.9991 259.8198 0003038 268.6337  78.9857 15.52556391  3773
STARLINK-36167          
1 67011U 25293J   26004.25002315 -.00072810  00000+0 -11903-2 0  9991
2 67011  69.9993 259.8230 0002968 272.8176  72.8786 15.52550521  3719
STARLINK-36175          
1 67012U 25293K   26004.25002315 -.00069883  00000+0 -11420-2 0  9992
2 67012  69.9993 259.8183 0003200 271.8613  77.6691 15.52548850  3712
STARLINK-35856          
1 67013U 25293L   26004.25002315 -.00083941  00000+0 -13743-2 0  9994
2 67013  69.9992 259.8162 0003285 270.9629  80.4821 15.52556758  3712
STARLINK-36207          
1 67014U 25293M   26004.12236696  .00126157  00000+0  20187-2 0  9997
2 67014  69.9991 260.1628 0003298 275.5553  84.5258 15.52551111  5141
STARLINK-36093          
1 67015U 25293N   26004.12167988  .00103568  00000+0  16624-2 0  9997
2 67015  69.9994 260.1606 0003286 266.1951  93.8860 15.52551082  5145
STARLINK-36120          
1 67016U 25293P   26004.12202243  .00074277  00000+0  11971-2 0  9996
2 67016  69.9992 260.1621 0003207 263.3090  96.7732 15.52558097  5140
STARLINK-35498          
1 67017U 25293Q   26004.12133847  .00128887  00000+0  20616-2 0  9993
2 67017  69.9991 260.1589 0003190 265.6617  94.4206 15.52550932  5145
STARLINK-36106          
1 67018U 25293R   26004.12099437  .00124413  00000+0  19906-2 0  9991
2 67018  69.9992 260.1575 0003616 274.1085  85.9688 15.52559138  5145
STARLINK-35688          
1 67019U 25293S   26004.24914646  .02506705  00000+0  32757-1 0  9991
2 67019  69.9990 259.8016 0006964 330.2243  29.8548 15.55244557  5161
STARLINK-36172          
1 67020U 25293T   26004.05638786 -.04255700  00000+0 -93793-1 0  9997
2 67020  69.9990 260.3328 0018566 165.6816 194.4899 15.47807886  5139
STARLINK-36184          
1 67021U 25293U   26004.24842680  .02353911  00000+0  30373-1 0  9993
2 67021  69.9994 259.7987 0008654 272.6946  87.3252 15.55248316  5169
